{"type": "FeatureCollection", "features": [{"type": "Feature", "properties": {"norad_id": 26766, "name": "INTELSAT 10 (IS-10)", "group": "intelsat", "lat": -8.624236098269966, "lon": -23.115308391384772, "alt_km": 36104.16706636582, "timestamp": "2025-12-22T09:53:37.073674+00:00", "meta": {"OBJECT_NAME": "INTELSAT 10 (IS-10)", "OBJECT_ID": "2001-019A", "EPOCH": "2025-12-21T17:53:39.051168", "MEAN_MOTION": 0.99073842, "ECCENTRICITY": 0.0007736, "INCLINATION": 8.6495, "RA_OF_ASC_NODE": 61.0661, "ARG_OF_PERICENTER": 228.4282, "MEAN_ANOMALY": 169.4863, "EPHEMERIS_TYPE": 0, "CLASSIFICATION_TYPE": "U", "NORAD_CAT_ID": 26766, "ELEMENT_SET_NO": 999, "REV_AT_EPOCH": 4382, "BSTAR": 0, "MEAN_MOTION_DOT": -7.1e-07, "MEAN_MOTION_DDOT": 0}, "tle": {"line1": "1 26766U 01019A   25355.74559087 -.00000071  00000+0  00000+0 0  9990", "line2": "2 26766   8.6495  61.0661 0007736 228.4282 169.4863  0.99073842 43828"}}, "geometry": {"type": "Point", "coordinates": [-23.115308391384772, -8.624236098269966]}}, {"type": "Feature", "properties": {"norad_id": 26900, "name": "INTELSAT 902 (IS-902)", "group": "intelsat", "lat": 5.122075914031828, "lon": -170.47794825265703, "alt_km": 35781.29792253334, "timestamp": "2025-12-22T09:53:37.073698+00:00", "meta": {"OBJECT_NAME": "INTELSAT 902 (IS-902)", "OBJECT_ID": "2001-039A", "EPOCH": "2025-12-15T13:09:02.081664", "MEAN_MOTION": 1.0027087, "ECCENTRICITY": 0.00045028, "INCLINATION": 5.6536, "RA_OF_ASC_NODE": 74.0372, "ARG_OF_PERICENTER": 189.6359, "MEAN_ANOMALY": 327.9329, "EPHEMERIS_TYPE": 0, "CLASSIFICATION_TYPE": "U", "NORAD_CAT_ID": 26900, "ELEMENT_SET_NO": 999, "REV_AT_EPOCH": 8885, "BSTAR": 0, "MEAN_MOTION_DOT": -2.65e-06, "MEAN_MOTION_DDOT": 0}, "tle": {"line1": "1 26900U 01039A   25349.54794076 -.00000265  00000+0  00000+0 0  9997", "line2": "2 26900   5.6536  74.0372 0004502 189.6359 327.9329  1.00270870 88858"}}, "geometry": {"type": "Point", "coordinates": [-170.47794825265703, 5.122075914031828]}}, {"type": "Feature", "properties": {"norad_id": 27380, "name": "INTELSAT 904 (IS-904)", "group": "intelsat", "lat": 4.428202816509978, "lon": -151.72521999962166, "alt_km": 35789.040960995924, "timestamp": "2025-12-22T09:53:37.073714+00:00", "meta": {"OBJECT_NAME": "INTELSAT 904 (IS-904)", "OBJECT_ID": "2002-007A", "EPOCH": "2025-12-22T02:44:30.513120", "MEAN_MOTION": 1.00270383, "ECCENTRICITY": 0.000192, "INCLINATION": 6.4765, "RA_OF_ASC_NODE": 71.3245, "ARG_OF_PERICENTER": 249.6541, "MEAN_ANOMALY": 139.5626, "EPHEMERIS_TYPE": 0, "CLASSIFICATION_TYPE": "U", "NORAD_CAT_ID": 27380, "ELEMENT_SET_NO": 999, "REV_AT_EPOCH": 4999, "BSTAR": 0, "MEAN_MOTION_DOT": -2.08e-06, "MEAN_MOTION_DDOT": 0}, "tle": {"line1": "1 27380U 02007A   25356.11424205 -.00000208  00000+0  00000+0 0  9998", "line2": "2 27380   6.4765  71.3245 0001920 249.6541 139.5626  1.00270383 49992"}}, "geometry": {"type": "Point", "coordinates": [-151.72521999962166, 4.428202816509978]}}, {"type": "Feature", "properties": {"norad_id": 27426, "name": "DIRECTV 5 (TEMPO 1)", "group": "intelsat", "lat": 3.5058389659393647, "lon": 129.39671358743323, "alt_km": 35796.89812763297, "timestamp": "2025-12-22T09:53:37.073727+00:00", "meta": {"OBJECT_NAME": "DIRECTV 5 (TEMPO 1)", "OBJECT_ID": "2002-023A", "EPOCH": "2025-12-21T16:05:53.587968", "MEAN_MOTION": 1.00271761, "ECCENTRICITY": 0.0003158, "INCLINATION": 4.4235, "RA_OF_ASC_NODE": 77.5485, "ARG_OF_PERICENTER": 199.36, "MEAN_ANOMALY": 304.9323, "EPHEMERIS_TYPE": 0, "CLASSIFICATION_TYPE": "U", "NORAD_CAT_ID": 27426, "ELEMENT_SET_NO": 999, "REV_AT_EPOCH": 8634, "BSTAR": 0, "MEAN_MOTION_DOT": -3.8e-07, "MEAN_MOTION_DDOT": 0}, "tle": {"line1": "1 27426U 02023A   25355.67075912 -.00000038  00000+0  00000+0 0  9995", "line2": "2 27426   4.4235  77.5485 0003158 199.3600 304.9323  1.00271761 86342"}}, "geometry": {"type": "Point", "coordinates": [129.39671358743323, 3.5058389659393647]}}, {"type": "Feature", "properties": {"norad_id": 27438, "name": "INTELSAT 905 (IS-905)", "group": "intelsat", "lat": 3.2178648890960813, "lon": 102.26024648242014, "alt_km": 35796.60779995113, "timestamp": "2025-12-22T09:53:37.073740+00:00", "meta": {"OBJECT_NAME": "INTELSAT 905 (IS-905)", "OBJECT_ID": "2002-027A", "EPOCH": "2025-12-21T11:38:50.085024", "MEAN_MOTION": 1.00272793, "ECCENTRICITY": 0.00026882, "INCLINATION": 6.3061, "RA_OF_ASC_NODE": 71.9555, "ARG_OF_PERICENTER": 203.6165, "MEAN_ANOMALY": 212.2349, "EPHEMERIS_TYPE": 0, "CLASSIFICATION_TYPE": "U", "NORAD_CAT_ID": 27438, "ELEMENT_SET_NO": 999, "REV_AT_EPOCH": 4958, "BSTAR": 0, "MEAN_MOTION_DOT": 1.12e-06, "MEAN_MOTION_DDOT": 0}, "tle": {"line1": "1 27438U 02027A   25355.48530191  .00000112  00000+0  00000+0 0  9998", "line2": "2 27438   6.3061  71.9555 0002688 203.6165 212.2349  1.00272793 49581"}}, "geometry": {"type": "Point", "coordinates": [102.26024648242014, 3.2178648890960813]}}, {"type": "Feature", "properties": {"norad_id": 27445, "name": "GALAXY 3C (G-3C)", "group": "intelsat", "lat": 2.9810720230727954, "lon": 144.72161702951155, "alt_km": 35781.25811804107, "timestamp": "2025-12-22T09:53:37.073752+00:00", "meta": {"OBJECT_NAME": "GALAXY 3C (G-3C)", "OBJECT_ID": "2002-030A", "EPOCH": "2025-12-21T23:01:07.688064", "MEAN_MOTION": 1.00271811, "ECCENTRICITY": 0.000109, "INCLINATION": 3.2853, "RA_OF_ASC_NODE": 80.4094, "ARG_OF_PERICENTER": 78.2982, "MEAN_ANOMALY": 182.4883, "EPHEMERIS_TYPE": 0, "CLASSIFICATION_TYPE": "U", "NORAD_CAT_ID": 27445, "ELEMENT_SET_NO": 999, "REV_AT_EPOCH": 4471, "BSTAR": 0, "MEAN_MOTION_DOT": -1.33e-06, "MEAN_MOTION_DDOT": 0}, "tle": {"line1": "1 27445U 02030A   25355.95911676 -.00000133  00000+0  00000+0 0  9997", "line2": "2 27445   3.2853  80.4094 0001090  78.2982 182.4883  1.00271811 44717"}}, "geometry": {"type": "Point", "coordinates": [144.72161702951155, 2.9810720230727954]}}, {"type": "Feature", "properties": {"norad_id": 27513, "name": "INTELSAT 906 (IS-906)", "group": "intelsat", "lat": -4.042092290834255, "lon": -56.32982367344043, "alt_km": 35762.75398562568, "timestamp": "2025-12-22T09:53:37.073764+00:00", "meta": {"OBJECT_NAME": "INTELSAT 906 (IS-906)", "OBJECT_ID": "2002-041A", "EPOCH": "2025-12-21T20:19:33.988224", "MEAN_MOTION": 1.00273099, "ECCENTRICITY": 0.0006306, "INCLINATION": 5.3527, "RA_OF_ASC_NODE": 75.1232, "ARG_OF_PERICENTER": 200.0655, "MEAN_ANOMALY": 184.499, "EPHEMERIS_TYPE": 0, "CLASSIFICATION_TYPE": "U", "NORAD_CAT_ID": 27513, "ELEMENT_SET_NO": 999, "REV_AT_EPOCH": 8525, "BSTAR": 0, "MEAN_MOTION_DOT": 3.1e-07, "MEAN_MOTION_DDOT": 0}, "tle": {"line1": "1 27513U 02041A   25355.84692116  .00000031  00000+0  00000+0 0  9994", "line2": "2 27513   5.3527  75.1232 0006306 200.0655 184.4990  1.00273099 85251"}}, "geometry": {"type": "Point", "coordinates": [-56.32982367344043, -4.042092290834255]}}, {"type": "Feature", "properties": {"norad_id": 27954, "name": "GALAXY 13 (HORIZONS-1)", "group": "intelsat", "lat": 0.07988966363175729, "lon": 89.58582366568645, "alt_km": 35796.43041391465, "timestamp": "2025-12-22T09:53:37.073777+00:00", "meta": {"OBJECT_NAME": "GALAXY 13 (HORIZONS-1)", "OBJECT_ID": "2003-044A", "EPOCH": "2025-12-22T02:10:48.740160", "MEAN_MOTION": 1.00270519, "ECCENTRICITY": 0.0002372, "INCLINATION": 0.9608, "RA_OF_ASC_NODE": 86.3495, "ARG_OF_PERICENTER": 180.4067, "MEAN_ANOMALY": 66.8212, "EPHEMERIS_TYPE": 0, "CLASSIFICATION_TYPE": "U", "NORAD_CAT_ID": 27954, "ELEMENT_SET_NO": 999, "REV_AT_EPOCH": 4479, "BSTAR": 0, "MEAN_MOTION_DOT": 1.54e-06, "MEAN_MOTION_DDOT": 0}, "tle": {"line1": "1 27954U 03044A   25356.09084190  .00000154  00000+0  00000+0 0  9998", "line2": "2 27954   0.9608  86.3495 0002372 180.4067  66.8212  1.00270519 44791"}}, "geometry": {"type": "Point", "coordinates": [89.58582366568645, 0.07988966363175729]}}, {"type": "Feature", "properties": {"norad_id": 28358, "name": "INTELSAT 10-02", "group": "intelsat", "lat": -0.008645484623200436, "lon": -121.35660614983625, "alt_km": 35784.60124747899, "timestamp": "2025-12-22T09:53:37.073789+00:00", "meta": {"OBJECT_NAME": "INTELSAT 10-02", "OBJECT_ID": "2004-022A", "EPOCH": "2025-12-22T01:10:32.793024", "MEAN_MOTION": 1.00271641, "ECCENTRICITY": 9.95e-05, "INCLINATION": 0.0191, "RA_OF_ASC_NODE": 73.3386, "ARG_OF_PERICENTER": 234.5255, "MEAN_ANOMALY": 159.6716, "EPHEMERIS_TYPE": 0, "CLASSIFICATION_TYPE": "U", "NORAD_CAT_ID": 28358, "ELEMENT_SET_NO": 999, "REV_AT_EPOCH": 7878, "BSTAR": 0, "MEAN_MOTION_DOT": 1.1e-07, "MEAN_MOTION_DDOT": 0}, "tle": {"line1": "1 28358U 04022A   25356.04899066  .00000011  00000+0  00000+0 0  9997", "line2": "2 28358   0.0191  73.3386 0000995 234.5255 159.6716  1.00271641 78785"}}, "geometry": {"type": "Point", "coordinates": [-121.35660614983625, -0.008645484623200436]}}, {"type": "Feature", "properties": {"norad_id": 28626, "name": "XM-3 (RHYTHM)", "group": "intelsat", "lat": -0.16278147146288258, "lon": -52.082518727976776, "alt_km": 36155.47930588834, "timestamp": "2025-12-22T09:53:37.073801+00:00", "meta": {"OBJECT_NAME": "XM-3 (RHYTHM)", "OBJECT_ID": "2005-008A", "EPOCH": "2025-12-22T03:13:27.739776", "MEAN_MOTION": 0.98949851, "ECCENTRICITY": 0.000201, "INCLINATION": 0.1976, "RA_OF_ASC_NODE": 82.0468, "ARG_OF_PERICENTER": 277.1097, "MEAN_ANOMALY": 209.796, "EPHEMERIS_TYPE": 0, "CLASSIFICATION_TYPE": "U", "NORAD_CAT_ID": 28626, "ELEMENT_SET_NO": 999, "REV_AT_EPOCH": 4084, "BSTAR": 0, "MEAN_MOTION_DOT": 9.3e-07, "MEAN_MOTION_DDOT": 0}, "tle": {"line1": "1 28626U 05008A   25356.13434884  .00000093  00000+0  00000+0 0  9993", "line2": "2 28626   0.1976  82.0468 0002010 277.1097 209.7960  0.98949851 40845"}}, "geometry": {"type": "Point", "coordinates": [-52.082518727976776, -0.16278147146288258]}}]}